[{"OBJECT_NAME":"STARLINK-11330 [DTC]","OBJECT_ID":"2024-213D","EPOCH":"2026-03-09T06:05:26.331072","MEAN_MOTION":15.69702181,"ECCENTRICITY":0.00013153,"INCLINATION":53.157,"RA_OF_ASC_NODE":43.6387,"ARG_OF_PERICENTER":61.3625,"MEAN_ANOMALY":298.7525,"EPHEMERIS_TYPE":0,"CLASSIFICATION_TYPE":"U","NORAD_CAT_ID":62011,"ELEMENT_SET_NO":999,"REV_AT_EPOCH":7484,"BSTAR":0.0016733384,"MEAN_MOTION_DOT":0.00207209,"MEAN_MOTION_DDOT":0},{"OBJECT_NAME":"OV3-3","OBJECT_ID":"1966-070A","EPOCH":"2026-03-09T22:03:14.294880","MEAN_MOTION":13.42594145,"ECCENTRICITY":0.10245609,"INCLINATION":81.3241,"RA_OF_ASC_NODE":58.4456,"ARG_OF_PERICENTER":54.9014,"MEAN_ANOMALY":314.389,"EPHEMERIS_TYPE":0,"CLASSIFICATION_TYPE":"U","NORAD_CAT_ID":2389,"ELEMENT_SET_NO":999,"REV_AT_EPOCH":58563,"BSTAR":0.00080880724,"MEAN_MOTION_DOT":0.00018028,"MEAN_MOTION_DDOT":0}]
